[{"OBJECT_NAME":"ONEWEB-0602","OBJECT_ID":"2022-166AA","EPOCH":"2026-04-13T15:46:24.981312","MEAN_MOTION":13.2182556,"ECCENTRICITY":0.0002104,"INCLINATION":87.9191,"RA_OF_ASC_NODE":256.8559,"ARG_OF_PERICENTER":100.378,"MEAN_ANOMALY":259.7591,"EPHEMERIS_TYPE":0,"CLASSIFICATION_TYPE":"U","NORAD_CAT_ID":54666,"ELEMENT_SET_NO":999,"REV_AT_EPOCH":16302,"BSTAR":0.00010064,"MEAN_MOTION_DOT":5.5e-07,"MEAN_MOTION_DDOT":0.0},{"OBJECT_NAME":"ONEWEB-0603","OBJECT_ID":"2022-166AB","EPOCH":"2026-04-13T15:54:53.450496","MEAN_MOTION":13.21826774,"ECCENTRICITY":0.0001903,"INCLINATION":87.9204,"RA_OF_ASC_NODE":256.8047,"ARG_OF_PERICENTER":102.1992,"MEAN_ANOMALY":257.9356,"EPHEMERIS_TYPE":0,"CLASSIFICATION_TYPE":"U","NORAD_CAT_ID":54667,"ELEMENT_SET_NO":999,"REV_AT_EPOCH":16295,"BSTAR":0.00025632,"MEAN_MOTION_DOT":1.19e-06,"MEAN_MOTION_DDOT":0.0},{"OBJECT_NAME":"ONEWEB-0604","OBJECT_ID":"2022-166AC","EPOCH":"2026-04-13T15:37:56.258112","MEAN_MOTION":13.21825706,"ECCENTRICITY":0.0001831,"INCLINATION":87.9205,"RA_OF_ASC_NODE":256.8217,"ARG_OF_PERICENTER":95.718,"MEAN_ANOMALY":264.4163,"EPHEMERIS_TYPE":0,"CLASSIFICATION_TYPE":"U","NORAD_CAT_ID":54668,"ELEMENT_SET_NO":999,"REV_AT_EPOCH":16291,"BSTAR":-3.902e-05,"MEAN_MOTION_DOT":-3e-08,"MEAN_MOTION_DDOT":0.0},{"OBJECT_NAME":"ONEWEB-0605","OBJECT_ID":"2022-166AD","EPOCH":"2026-04-13T17:17:14.814240","MEAN_MOTION":13.21825751,"ECCENTRICITY":0.0001482,"INCLINATION":87.9195,"RA_OF_ASC_NODE":256.8277,"ARG_OF_PERICENTER":118.0177,"MEAN_ANOMALY":242.1107,"EPHEMERIS_TYPE":0,"CLASSIFICATION_TYPE":"U","NORAD_CAT_ID":54669,"ELEMENT_SET_NO":999,"REV_AT_EPOCH":16299,"BSTAR":-9.561400000000001e-06,"MEAN_MOTION_DOT":9e-08,"MEAN_MOTION_DDOT":0.0},{"OBJECT_NAME":"ONEWEB-0606","OBJECT_ID":"2022-166AE","EPOCH":"2026-04-13T19:37:44.837184","MEAN_MOTION":13.21826311,"ECCENTRICITY":0.0001856,"INCLINATION":87.9194,"RA_OF_ASC_NODE":256.8211,"ARG_OF_PERICENTER":93.2224,"MEAN_ANOMALY":266.9123,"EPHEMERIS_TYPE":0,"CLASSIFICATION_TYPE":"U","NORAD_CAT_ID":54670,"ELEMENT_SET_NO":999,"REV_AT_EPOCH":16306,"BSTAR":-6.0436e-05,"MEAN_MOTION_DOT":-1.2e-07,"MEAN_MOTION_DDOT":0.0},{"OBJECT_NAME":"ONEWEB-0607","OBJECT_ID":"2022-166AF","EPOCH":"2026-04-13T17:00:15.020352","MEAN_MOTION":13.21826379,"ECCENTRICITY":0.0001948,"INCLINATION":87.9201,"RA_OF_ASC_NODE":256.8093,"ARG_OF_PERICENTER":102.0057,"MEAN_ANOMALY":258.1295,"EPHEMERIS_TYPE":0,"CLASSIFICATION_TYPE":"U","NORAD_CAT_ID":54671,"ELEMENT_SET_NO":999,"REV_AT_EPOCH":16302,"BSTAR":-4.188700000000001e-05,"MEAN_MOTION_DOT":-4e-08,"MEAN_MOTION_DDOT":0.0},{"OBJECT_NAME":"ONEWEB-0608","OBJECT_ID":"2022-166AG","EPOCH":"2026-04-13T17:09:56.934720","MEAN_MOTION":13.21826943,"ECCENTRICITY":0.0001744,"INCLINATION":87.9205,"RA_OF_ASC_NODE":256.8027,"ARG_OF_PERICENTER":116.5374,"MEAN_ANOMALY":243.5939,"EPHEMERIS_TYPE":0,"CLASSIFICATION_TYPE":"U","NORAD_CAT_ID":54672,"ELEMENT_SET_NO":999,"REV_AT_EPOCH":16303,"BSTAR":-5.3911e-05,"MEAN_MOTION_DOT":-9e-08,"MEAN_MOTION_DDOT":0.0},{"OBJECT_NAME":"ONEWEB-0610","OBJECT_ID":"2022-166AH","EPOCH":"2026-04-13T16:40:51.594240","MEAN_MOTION":13.2182367,"ECCENTRICITY":0.0002043,"INCLINATION":87.9197,"RA_OF_ASC_NODE":256.8276,"ARG_OF_PERICENTER":116.8519,"MEAN_ANOMALY":243.2824,"EPHEMERIS_TYPE":0,"CLASSIFICATION_TYPE":"U","NORAD_CAT_ID":54673,"ELEMENT_SET_NO":999,"REV_AT_EPOCH":16293,"BSTAR":0.00015791,"MEAN_MOTION_DOT":7.8e-07,"MEAN_MOTION_DDOT":0.0},{"OBJECT_NAME":"ONEWEB-0611","OBJECT_ID":"2022-166AJ","EPOCH":"2026-04-13T16:31:10.947360","MEAN_MOTION":13.21824859,"ECCENTRICITY":0.0001779,"INCLINATION":87.9194,"RA_OF_ASC_NODE":256.8254,"ARG_OF_PERICENTER":94.5406,"MEAN_ANOMALY":265.5931,"EPHEMERIS_TYPE":0,"CLASSIFICATION_TYPE":"U","NORAD_CAT_ID":54674,"ELEMENT_SET_NO":999,"REV_AT_EPOCH":16292,"BSTAR":-0.00028815000000000004,"MEAN_MOTION_DOT":-1.06e-06,"MEAN_MOTION_DDOT":0.0},{"OBJECT_NAME":"ONEWEB-0612","OBJECT_ID":"2022-166AK","EPOCH":"2026-04-13T20:28:33.931200","MEAN_MOTION":13.21824986,"ECCENTRICITY":0.000185,"INCLINATION":87.92,"RA_OF_ASC_NODE":256.7803,"ARG_OF_PERICENTER":104.4829,"MEAN_ANOMALY":255.6511,"EPHEMERIS_TYPE":0,"CLASSIFICATION_TYPE":"U","NORAD_CAT_ID":54675,"ELEMENT_SET_NO":999,"REV_AT_EPOCH":16293,"BSTAR":-0.00084322,"MEAN_MOTION_DOT":-3.35e-06,"MEAN_MOTION_DDOT":0.0},{"OBJECT_NAME":"ONEWEB-0615","OBJECT_ID":"2022-166AL","EPOCH":"2026-04-13T19:59:29.539392","MEAN_MOTION":13.21824781,"ECCENTRICITY":0.0001976,"INCLINATION":87.9196,"RA_OF_ASC_NODE":256.8051,"ARG_OF_PERICENTER":91.6624,"MEAN_ANOMALY":268.4736,"EPHEMERIS_TYPE":0,"CLASSIFICATION_TYPE":"U","NORAD_CAT_ID":54676,"ELEMENT_SET_NO":999,"REV_AT_EPOCH":16294,"BSTAR":0.00011949999999999999,"MEAN_MOTION_DOT":6.2e-07,"MEAN_MOTION_DDOT":0.0},{"OBJECT_NAME":"ONEWEB-0655","OBJECT_ID":"2022-166AM","EPOCH":"2026-04-13T19:25:37.721568","MEAN_MOTION":13.21825993,"ECCENTRICITY":0.0002086,"INCLINATION":87.9194,"RA_OF_ASC_NODE":256.8121,"ARG_OF_PERICENTER":102.1768,"MEAN_ANOMALY":257.96,"EPHEMERIS_TYPE":0,"CLASSIFICATION_TYPE":"U","NORAD_CAT_ID":54677,"ELEMENT_SET_NO":999,"REV_AT_EPOCH":16293,"BSTAR":0.00025780999999999997,"MEAN_MOTION_DOT":1.2e-06,"MEAN_MOTION_DDOT":0.0},{"OBJECT_NAME":"ONEWEB-0659","OBJECT_ID":"2022-166AN","EPOCH":"2026-04-13T16:11:55.190112","MEAN_MOTION":13.21814767,"ECCENTRICITY":0.0001824,"INCLINATION":87.9193,"RA_OF_ASC_NODE":256.8393,"ARG_OF_PERICENTER":96.8927,"MEAN_ANOMALY":263.2415,"EPHEMERIS_TYPE":0,"CLASSIFICATION_TYPE":"U","NORAD_CAT_ID":54678,"ELEMENT_SET_NO":999,"REV_AT_EPOCH":16300,"BSTAR":0.0039007,"MEAN_MOTION_DOT":1.624e-05,"MEAN_MOTION_DDOT":0.0},{"OBJECT_NAME":"ONEWEB-0685","OBJECT_ID":"2022-166AP","EPOCH":"2026-04-13T16:11:44.848896","MEAN_MOTION":13.21815704,"ECCENTRICITY":0.0001923,"INCLINATION":87.919,"RA_OF_ASC_NODE":256.833,"ARG_OF_PERICENTER":103.4556,"MEAN_ANOMALY":256.6792,"EPHEMERIS_TYPE":0,"CLASSIFICATION_TYPE":"U","NORAD_CAT_ID":54679,"ELEMENT_SET_NO":999,"REV_AT_EPOCH":16289,"BSTAR":0.00023087,"MEAN_MOTION_DOT":1.08e-06,"MEAN_MOTION_DDOT":0.0},{"OBJECT_NAME":"ONEWEB-0712","OBJECT_ID":"2022-166AQ","EPOCH":"2026-04-13T07:27:15.179040","MEAN_MOTION":13.16602572,"ECCENTRICITY":0.0002232,"INCLINATION":87.906,"RA_OF_ASC_NODE":241.6616,"ARG_OF_PERICENTER":103.9196,"MEAN_ANOMALY":256.2183,"EPHEMERIS_TYPE":0,"CLASSIFICATION_TYPE":"U","NORAD_CAT_ID":54680,"ELEMENT_SET_NO":999,"REV_AT_EPOCH":16352,"BSTAR":0.0030719000000000002,"MEAN_MOTION_DOT":1.188e-05,"MEAN_MOTION_DDOT":0.0},{"OBJECT_NAME":"ONEWEB-0714","OBJECT_ID":"2022-166AR","EPOCH":"2026-04-13T19:57:04.374432","MEAN_MOTION":13.21823689,"ECCENTRICITY":0.0002059,"INCLINATION":87.9196,"RA_OF_ASC_NODE":256.7975,"ARG_OF_PERICENTER":101.2648,"MEAN_ANOMALY":258.8717,"EPHEMERIS_TYPE":0,"CLASSIFICATION_TYPE":"U","NORAD_CAT_ID":54681,"ELEMENT_SET_NO":999,"REV_AT_EPOCH":16303,"BSTAR":2.4225e-05,"MEAN_MOTION_DOT":2.3e-07,"MEAN_MOTION_DDOT":0.0},{"OBJECT_NAME":"ONEWEB-0532","OBJECT_ID":"2023-004A","EPOCH":"2026-04-13T17:10:10.298208","MEAN_MOTION":13.17651258,"ECCENTRICITY":0.0001447,"INCLINATION":87.9188,"RA_OF_ASC_NODE":18.6713,"ARG_OF_PERICENTER":78.6703,"MEAN_ANOMALY":281.4591,"EPHEMERIS_TYPE":0,"CLASSIFICATION_TYPE":"U","NORAD_CAT_ID":55140,"ELEMENT_SET_NO":999,"REV_AT_EPOCH":15909,"BSTAR":-0.00016584,"MEAN_MOTION_DOT":-5.2e-07,"MEAN_MOTION_DDOT":0.0},{"OBJECT_NAME":"ONEWEB-0533","OBJECT_ID":"2023-004B","EPOCH":"2026-04-13T23:03:29.874816","MEAN_MOTION":13.12440399,"ECCENTRICITY":0.0001787,"INCLINATION":87.9011,"RA_OF_ASC_NODE":3.4264,"ARG_OF_PERICENTER":85.7772,"MEAN_ANOMALY":274.3561,"EPHEMERIS_TYPE":0,"CLASSIFICATION_TYPE":"U","NORAD_CAT_ID":55141,"ELEMENT_SET_NO":999,"REV_AT_EPOCH":15963,"BSTAR":-0.0005776900000000001,"MEAN_MOTION_DOT":-1.95e-06,"MEAN_MOTION_DDOT":0.0},{"OBJECT_NAME":"ONEWEB-0541","OBJECT_ID":"2023-004C","EPOCH":"2026-04-13T13:24:53.307648","MEAN_MOTION":13.11418102,"ECCENTRICITY":0.0001787,"INCLINATION":87.8938,"RA_OF_ASC_NODE":33.9,"ARG_OF_PERICENTER":72.7644,"MEAN_ANOMALY":287.3679,"EPHEMERIS_TYPE":0,"CLASSIFICATION_TYPE":"U","NORAD_CAT_ID":55142,"ELEMENT_SET_NO":999,"REV_AT_EPOCH":15747,"BSTAR":0.00086753,"MEAN_MOTION_DOT":3.2e-06,"MEAN_MOTION_DDOT":0.0},{"OBJECT_NAME":"ONEWEB-0543","OBJECT_ID":"2023-004D","EPOCH":"2026-04-13T23:20:07.679040","MEAN_MOTION":13.18685235,"ECCENTRICITY":0.0002006,"INCLINATION":87.9218,"RA_OF_ASC_NODE":348.2433,"ARG_OF_PERICENTER":81.983,"MEAN_ANOMALY":278.153,"EPHEMERIS_TYPE":0,"CLASSIFICATION_TYPE":"U","NORAD_CAT_ID":55143,"ELEMENT_SET_NO":999,"REV_AT_EPOCH":16123,"BSTAR":-3.6791e-05,"MEAN_MOTION_DOT":-2e-08,"MEAN_MOTION_DDOT":0.0},{"OBJECT_NAME":"ONEWEB-0544","OBJECT_ID":"2023-004E","EPOCH":"2026-04-13T23:10:36.613056","MEAN_MOTION":13.18684298,"ECCENTRICITY":0.0001899,"INCLINATION":87.9218,"RA_OF_ASC_NODE":348.2438,"ARG_OF_PERICENTER":74.3485,"MEAN_ANOMALY":285.7857,"EPHEMERIS_TYPE":0,"CLASSIFICATION_TYPE":"U","NORAD_CAT_ID":55144,"ELEMENT_SET_NO":999,"REV_AT_EPOCH":16123,"BSTAR":3.3784e-05,"MEAN_MOTION_DOT":2.6e-07,"MEAN_MOTION_DDOT":0.0},{"OBJECT_NAME":"ONEWEB-0560","OBJECT_ID":"2023-004F","EPOCH":"2026-04-13T23:01:07.658688","MEAN_MOTION":13.18684951,"ECCENTRICITY":0.0001926,"INCLINATION":87.921,"RA_OF_ASC_NODE":348.2341,"ARG_OF_PERICENTER":75.2457,"MEAN_ANOMALY":284.8889,"EPHEMERIS_TYPE":0,"CLASSIFICATION_TYPE":"U","NORAD_CAT_ID":55145,"ELEMENT_SET_NO":999,"REV_AT_EPOCH":16124,"BSTAR":0.00014047000000000002,"MEAN_MOTION_DOT":6.8e-07,"MEAN_MOTION_DDOT":0.0},{"OBJECT_NAME":"ONEWEB-0565","OBJECT_ID":"2023-004G","EPOCH":"2026-04-13T22:51:36.711936","MEAN_MOTION":13.18683944,"ECCENTRICITY":0.0001686,"INCLINATION":87.9206,"RA_OF_ASC_NODE":348.2696,"ARG_OF_PERICENTER":65.4947,"MEAN_ANOMALY":294.6361,"EPHEMERIS_TYPE":0,"CLASSIFICATION_TYPE":"U","NORAD_CAT_ID":55146,"ELEMENT_SET_NO":999,"REV_AT_EPOCH":16123,"BSTAR":-7.654600000000001e-05,"MEAN_MOTION_DOT":-1.7e-07,"MEAN_MOTION_DDOT":0.0}]